[{"OBJECT_NAME":"STARLINK-2378","OBJECT_ID":"2021-021BJ","EPOCH":"2025-11-17T14:54:59.804064","MEAN_MOTION":15.06401187,"ECCENTRICITY":0.00010652,"INCLINATION":53.0552,"RA_OF_ASC_NODE":44.7133,"ARG_OF_PERICENTER":80.1812,"MEAN_ANOMALY":279.9297,"EPHEMERIS_TYPE":0,"CLASSIFICATION_TYPE":"U","NORAD_CAT_ID":47916,"ELEMENT_SET_NO":999,"REV_AT_EPOCH":25942,"BSTAR":0.00017412975,"MEAN_MOTION_DOT":2.313e-5,"MEAN_MOTION_DDOT":0},{"OBJECT_NAME":"STARLINK-2405","OBJECT_ID":"2021-021BM","EPOCH":"2025-11-17T16:27:53.089632","MEAN_MOTION":15.06390534,"ECCENTRICITY":0.0001603,"INCLINATION":53.0525,"RA_OF_ASC_NODE":64.4232,"ARG_OF_PERICENTER":89.4245,"MEAN_ANOMALY":270.6927,"EPHEMERIS_TYPE":0,"CLASSIFICATION_TYPE":"U","NORAD_CAT_ID":47919,"ELEMENT_SET_NO":999,"REV_AT_EPOCH":25915,"BSTAR":0.0004474,"MEAN_MOTION_DOT":6.387e-5,"MEAN_MOTION_DDOT":0},{"OBJECT_NAME":"STARLINK-1647","OBJECT_ID":"2021-024B","EPOCH":"2025-11-17T04:26:41.421696","MEAN_MOTION":15.06419674,"ECCENTRICITY":0.00017198,"INCLINATION":53.0546,"RA_OF_ASC_NODE":121.6711,"ARG_OF_PERICENTER":85.4808,"MEAN_ANOMALY":274.6377,"EPHEMERIS_TYPE":0,"CLASSIFICATION_TYPE":"U","NORAD_CAT_ID":47978,"ELEMENT_SET_NO":999,"REV_AT_EPOCH":25760,"BSTAR":0.00025389537,"MEAN_MOTION_DOT":3.504e-5,"MEAN_MOTION_DDOT":0},{"OBJECT_NAME":"STARLINK-2303","OBJECT_ID":"2021-024E","EPOCH":"2025-11-17T16:55:05.354976","MEAN_MOTION":15.06405834,"ECCENTRICITY":0.0001289,"INCLINATION":53.0514,"RA_OF_ASC_NODE":119.3366,"ARG_OF_PERICENTER":96.4305,"MEAN_ANOMALY":263.683,"EPHEMERIS_TYPE":0,"CLASSIFICATION_TYPE":"U","NORAD_CAT_ID":47981,"ELEMENT_SET_NO":999,"REV_AT_EPOCH":25768,"BSTAR":2.9742e-5,"MEAN_MOTION_DOT":1.62e-6,"MEAN_MOTION_DDOT":0},{"OBJECT_NAME":"STARLINK-2273","OBJECT_ID":"2021-024S","EPOCH":"2025-11-18T03:10:37.867008","MEAN_MOTION":15.06531258,"ECCENTRICITY":8.01e-5,"INCLINATION":53.0533,"RA_OF_ASC_NODE":77.4175,"ARG_OF_PERICENTER":134.0027,"MEAN_ANOMALY":226.1028,"EPHEMERIS_TYPE":0,"CLASSIFICATION_TYPE":"U","NORAD_CAT_ID":47993,"ELEMENT_SET_NO":999,"REV_AT_EPOCH":25830,"BSTAR":0.0011163,"MEAN_MOTION_DOT":0.00016443,"MEAN_MOTION_DDOT":0},{"OBJECT_NAME":"STARLINK-2266","OBJECT_ID":"2021-024W","EPOCH":"2025-11-17T18:52:31.440864","MEAN_MOTION":15.06400688,"ECCENTRICITY":0.0002347,"INCLINATION":53.0495,"RA_OF_ASC_NODE":93.9698,"ARG_OF_PERICENTER":98.6736,"MEAN_ANOMALY":261.4519,"EPHEMERIS_TYPE":0,"CLASSIFICATION_TYPE":"U","NORAD_CAT_ID":47997,"ELEMENT_SET_NO":999,"REV_AT_EPOCH":25804,"BSTAR":0.00016693,"MEAN_MOTION_DOT":2.205e-5,"MEAN_MOTION_DDOT":0},{"OBJECT_NAME":"STARLINK-2270","OBJECT_ID":"2021-024Z","EPOCH":"2025-11-17T14:36:27.466272","MEAN_MOTION":15.0639034,"ECCENTRICITY":0.00012801,"INCLINATION":53.0557,"RA_OF_ASC_NODE":24.9723,"ARG_OF_PERICENTER":81.6287,"MEAN_ANOMALY":278.4847,"EPHEMERIS_TYPE":0,"CLASSIFICATION_TYPE":"U","NORAD_CAT_ID":48000,"ELEMENT_SET_NO":999,"REV_AT_EPOCH":25894,"BSTAR":0.0012249761,"MEAN_MOTION_DOT":0.00018007,"MEAN_MOTION_DDOT":0},{"OBJECT_NAME":"STARLINK-2153","OBJECT_ID":"2021-024AJ","EPOCH":"2025-11-17T19:31:39.440352","MEAN_MOTION":15.06405605,"ECCENTRICITY":0.0001333,"INCLINATION":53.0538,"RA_OF_ASC_NODE":98.8471,"ARG_OF_PERICENTER":87.4047,"MEAN_ANOMALY":272.7095,"EPHEMERIS_TYPE":0,"CLASSIFICATION_TYPE":"U","NORAD_CAT_ID":48009,"ELEMENT_SET_NO":999,"REV_AT_EPOCH":25792,"BSTAR":2.5245e-5,"MEAN_MOTION_DOT":9.5e-7,"MEAN_MOTION_DDOT":0},{"OBJECT_NAME":"STARLINK-2226","OBJECT_ID":"2021-024AK","EPOCH":"2025-11-17T19:50:13.429248","MEAN_MOTION":15.06398188,"ECCENTRICITY":0.0001024,"INCLINATION":53.0519,"RA_OF_ASC_NODE":118.7907,"ARG_OF_PERICENTER":98.8063,"MEAN_ANOMALY":261.3042,"EPHEMERIS_TYPE":0,"CLASSIFICATION_TYPE":"U","NORAD_CAT_ID":48010,"ELEMENT_SET_NO":999,"REV_AT_EPOCH":25764,"BSTAR":-0.00012073,"MEAN_MOTION_DOT":-2.079e-5,"MEAN_MOTION_DDOT":0},{"OBJECT_NAME":"STARLINK-2285","OBJECT_ID":"2021-024AU","EPOCH":"2025-11-17T18:57:50.256000","MEAN_MOTION":15.06387318,"ECCENTRICITY":0.0001166,"INCLINATION":53.0536,"RA_OF_ASC_NODE":93.953,"ARG_OF_PERICENTER":80.7631,"MEAN_ANOMALY":279.349,"EPHEMERIS_TYPE":0,"CLASSIFICATION_TYPE":"U","NORAD_CAT_ID":48019,"ELEMENT_SET_NO":999,"REV_AT_EPOCH":25798,"BSTAR":0.00016996,"MEAN_MOTION_DOT":2.25e-5,"MEAN_MOTION_DDOT":0},{"OBJECT_NAME":"STARLINK-2298","OBJECT_ID":"2021-024AX","EPOCH":"2025-11-17T19:21:44.986752","MEAN_MOTION":15.06392489,"ECCENTRICITY":0.0001175,"INCLINATION":53.0532,"RA_OF_ASC_NODE":114.1588,"ARG_OF_PERICENTER":90.2516,"MEAN_ANOMALY":269.8608,"EPHEMERIS_TYPE":0,"CLASSIFICATION_TYPE":"U","NORAD_CAT_ID":48022,"ELEMENT_SET_NO":999,"REV_AT_EPOCH":25776,"BSTAR":-9.4056e-5,"MEAN_MOTION_DOT":-1.682e-5,"MEAN_MOTION_DDOT":0},{"OBJECT_NAME":"STARLINK-2292","OBJECT_ID":"2021-024AY","EPOCH":"2025-11-17T20:41:18.927168","MEAN_MOTION":15.06398689,"ECCENTRICITY":0.0001368,"INCLINATION":53.0544,"RA_OF_ASC_NODE":113.6319,"ARG_OF_PERICENTER":83.9579,"MEAN_ANOMALY":276.1566,"EPHEMERIS_TYPE":0,"CLASSIFICATION_TYPE":"U","NORAD_CAT_ID":48023,"ELEMENT_SET_NO":999,"REV_AT_EPOCH":25777,"BSTAR":-0.00021505,"MEAN_MOTION_DOT":-3.483e-5,"MEAN_MOTION_DDOT":0},{"OBJECT_NAME":"STARLINK-2299","OBJECT_ID":"2021-024BE","EPOCH":"2025-11-17T16:58:24.974400","MEAN_MOTION":15.06375759,"ECCENTRICITY":0.0001547,"INCLINATION":53.0526,"RA_OF_ASC_NODE":114.3253,"ARG_OF_PERICENTER":82.8986,"MEAN_ANOMALY":277.2179,"EPHEMERIS_TYPE":0,"CLASSIFICATION_TYPE":"U","NORAD_CAT_ID":48029,"ELEMENT_SET_NO":999,"REV_AT_EPOCH":25775,"BSTAR":0.00030867,"MEAN_MOTION_DOT":4.316e-5,"MEAN_MOTION_DDOT":0},{"OBJECT_NAME":"STARLINK-2404","OBJECT_ID":"2021-027B","EPOCH":"2025-11-18T03:41:59.072352","MEAN_MOTION":15.06405155,"ECCENTRICITY":0.0001396,"INCLINATION":53.0543,"RA_OF_ASC_NODE":302.5204,"ARG_OF_PERICENTER":106.7176,"MEAN_ANOMALY":253.3966,"EPHEMERIS_TYPE":0,"CLASSIFICATION_TYPE":"U","NORAD_CAT_ID":48093,"ELEMENT_SET_NO":999,"REV_AT_EPOCH":25574,"BSTAR":0.00076607,"MEAN_MOTION_DOT":0.00011149,"MEAN_MOTION_DDOT":0},{"OBJECT_NAME":"STARLINK-2412","OBJECT_ID":"2021-027C","EPOCH":"2025-11-18T04:07:10.929792","MEAN_MOTION":15.06406597,"ECCENTRICITY":0.000188,"INCLINATION":53.0545,"RA_OF_ASC_NODE":312.2435,"ARG_OF_PERICENTER":96.0482,"MEAN_ANOMALY":264.0722,"EPHEMERIS_TYPE":0,"CLASSIFICATION_TYPE":"U","NORAD_CAT_ID":48094,"ELEMENT_SET_NO":999,"REV_AT_EPOCH":25561,"BSTAR":0.00056419,"MEAN_MOTION_DOT":8.133e-5,"MEAN_MOTION_DDOT":0},{"OBJECT_NAME":"STARLINK-2414","OBJECT_ID":"2021-027D","EPOCH":"2025-11-18T04:17:47.438592","MEAN_MOTION":15.06421827,"ECCENTRICITY":0.0001553,"INCLINATION":53.0551,"RA_OF_ASC_NODE":312.21,"ARG_OF_PERICENTER":73.6686,"MEAN_ANOMALY":286.4473,"EPHEMERIS_TYPE":0,"CLASSIFICATION_TYPE":"U","NORAD_CAT_ID":48095,"ELEMENT_SET_NO":999,"REV_AT_EPOCH":25562,"BSTAR":0.00043721,"MEAN_MOTION_DOT":6.24e-5,"MEAN_MOTION_DDOT":0},{"OBJECT_NAME":"STARLINK-2417","OBJECT_ID":"2021-027E","EPOCH":"2025-11-18T03:40:37.758720","MEAN_MOTION":15.06411833,"ECCENTRICITY":0.0001899,"INCLINATION":53.0562,"RA_OF_ASC_NODE":312.3281,"ARG_OF_PERICENTER":115.4695,"MEAN_ANOMALY":244.6491,"EPHEMERIS_TYPE":0,"CLASSIFICATION_TYPE":"U","NORAD_CAT_ID":48096,"ELEMENT_SET_NO":999,"REV_AT_EPOCH":25560,"BSTAR":0.000399,"MEAN_MOTION_DOT":5.668e-5,"MEAN_MOTION_DDOT":0},{"OBJECT_NAME":"STARLINK-2418","OBJECT_ID":"2021-027F","EPOCH":"2025-11-18T03:11:26.649312","MEAN_MOTION":15.06422644,"ECCENTRICITY":0.0001551,"INCLINATION":53.0547,"RA_OF_ASC_NODE":292.4146,"ARG_OF_PERICENTER":83.0164,"MEAN_ANOMALY":277.1001,"EPHEMERIS_TYPE":0,"CLASSIFICATION_TYPE":"U","NORAD_CAT_ID":48097,"ELEMENT_SET_NO":999,"REV_AT_EPOCH":25588,"BSTAR":0.00057166,"MEAN_MOTION_DOT":8.249e-5,"MEAN_MOTION_DDOT":0},{"OBJECT_NAME":"STARLINK-2421","OBJECT_ID":"2021-027G","EPOCH":"2025-11-18T04:13:48.374112","MEAN_MOTION":15.06420287,"ECCENTRICITY":0.0001732,"INCLINATION":53.0551,"RA_OF_ASC_NODE":302.2215,"ARG_OF_PERICENTER":101.4637,"MEAN_ANOMALY":258.6547,"EPHEMERIS_TYPE":0,"CLASSIFICATION_TYPE":"U","NORAD_CAT_ID":48098,"ELEMENT_SET_NO":999,"REV_AT_EPOCH":25574,"BSTAR":0.00020929,"MEAN_MOTION_DOT":2.839e-5,"MEAN_MOTION_DDOT":0},{"OBJECT_NAME":"STARLINK-2428","OBJECT_ID":"2021-027H","EPOCH":"2025-11-18T03:56:33.270144","MEAN_MOTION":15.0640755,"ECCENTRICITY":0.0001572,"INCLINATION":53.0554,"RA_OF_ASC_NODE":312.2734,"ARG_OF_PERICENTER":95.0327,"MEAN_ANOMALY":265.0842,"EPHEMERIS_TYPE":0,"CLASSIFICATION_TYPE":"U","NORAD_CAT_ID":48099,"ELEMENT_SET_NO":999,"REV_AT_EPOCH":25560,"BSTAR":0.00033214,"MEAN_MOTION_DOT":4.67e-5,"MEAN_MOTION_DDOT":0},{"OBJECT_NAME":"STARLINK-2430","OBJECT_ID":"2021-027J","EPOCH":"2025-11-18T03:00:49.814784","MEAN_MOTION":15.06415735,"ECCENTRICITY":0.000141,"INCLINATION":53.0539,"RA_OF_ASC_NODE":292.4466,"ARG_OF_PERICENTER":84.5228,"MEAN_ANOMALY":275.5922,"EPHEMERIS_TYPE":0,"CLASSIFICATION_TYPE":"U","NORAD_CAT_ID":48100,"ELEMENT_SET_NO":999,"REV_AT_EPOCH":25588,"BSTAR":0.00085208,"MEAN_MOTION_DOT":0.00012438,"MEAN_MOTION_DDOT":0},{"OBJECT_NAME":"STARLINK-2436","OBJECT_ID":"2021-027K","EPOCH":"2025-11-18T03:04:50.895840","MEAN_MOTION":15.06410924,"ECCENTRICITY":0.0001571,"INCLINATION":53.0569,"RA_OF_ASC_NODE":302.6435,"ARG_OF_PERICENTER":96.752,"MEAN_ANOMALY":263.3648,"EPHEMERIS_TYPE":0,"CLASSIFICATION_TYPE":"U","NORAD_CAT_ID":48101,"ELEMENT_SET_NO":999,"REV_AT_EPOCH":25574,"BSTAR":0.00040859,"MEAN_MOTION_DOT":5.811e-5,"MEAN_MOTION_DDOT":0},{"OBJECT_NAME":"STARLINK-2439","OBJECT_ID":"2021-027N","EPOCH":"2025-11-18T04:06:31.243680","MEAN_MOTION":15.06396059,"ECCENTRICITY":0.0001715,"INCLINATION":53.0536,"RA_OF_ASC_NODE":297.241,"ARG_OF_PERICENTER":97.1587,"MEAN_ANOMALY":262.9597,"EPHEMERIS_TYPE":0,"CLASSIFICATION_TYPE":"U","NORAD_CAT_ID":48104,"ELEMENT_SET_NO":999,"REV_AT_EPOCH":25582,"BSTAR":0.00049722,"MEAN_MOTION_DOT":7.131e-5,"MEAN_MOTION_DDOT":0}]
